LEMUR-2-ROUNDTRIPPER    
1 62711U 25009DG  26171.22110774  .00006985  00000+0  51191-3 0  9991
2 62711  97.7251 253.8964 0005630 122.3264 237.8507 15.03833420 78085
LEMUR-2-MYNAMEISJEFF    
1 62712U 25009DH  26171.21950604  .00006525  00000+0  47856-3 0  9998
2 62712  97.7297 254.2779 0003883 143.6078 216.5412 15.03837013 78083
LEMUR-2-LEIA-PHILIP     
1 63246U 25052AN  26171.41106573  .00000476  00000+0  46000-4 0  9999
2 63246  97.6833  63.3081 0002912 199.6748 160.4362 14.97323874 69159
LEMUR-2-LIA-MARTIN      
1 63248U 25052AQ  26171.41507095  .00002973  00000+0  25786-3 0  9996
2 63248  97.6883  63.7915 0003106 153.1804 206.9579 14.97821397 69160
LEMUR-2-DELOITTE-1      
1 63259U 25052BB  26171.25825889  .00003338  00000+0  29039-3 0  9995
2 63259  97.6924  63.9659 0003522  90.6885 269.4741 14.97624737 69154
LEMUR-2-EMERSONROSE     
1 63261U 25052BD  26171.43066095  .00002933  00000+0  24627-3 0  9992
2 63261  97.6876  64.7001 0001751  71.6794 288.4620 14.99097173 69228
LEMUR-2-MARACHE-FRAN    
1 63262U 25052BE  26171.20365968  .00004017  00000+0  32663-3 0  9993
2 63262  97.6933  64.7998 0005047  11.9319 348.2023 15.00125665 69212
LEMUR-2-THEFALCONER     
1 63264U 25052BG  26171.41872824  .00002537  00000+0  22320-3 0  9996
2 63264  97.6850  63.7411 0002244  23.0037 337.1285 14.97403594 69175
LEMUR-2-UNTITLED-SC     
1 63351U 25061A   26171.39442588  .00002890  00000+0  16469-3 0  9999
2 63351  97.5640 146.7326 0017002 252.3972 107.5403 15.13495318 68071
LEMUR-2-ESPERANZA       
1 63352U 25061B   26171.37136541  .00002413  00000+0  13780-3 0  9991
2 63352  97.5646 146.8040 0016576 251.6410 108.3018 15.13585921 68077
LEMUR-2-KREMPEL-BRO2    
1 63353U 25061C   26171.39742444  .00002899  00000+0  16274-3 0  9998
2 63353  97.5692 147.3673 0017627 243.2822 116.6605 15.14024657 68090
LEMUR-2-THERMORAPTOR    
1 63354U 25061D   26171.44541056  .00002591  00000+0  14556-3 0  9991
2 63354  97.5697 147.4912 0017315 241.9500 117.9981 15.14104092 68100
LEMUR-2-NEUROSPICY      
1 63355U 25061E   26171.35075579  .00003171  00000+0  17686-3 0  9996
2 63355  97.5626 147.0210 0015137 245.9192 114.0457 15.14219201 68094
LEMUR-2-TILLINFINITY    
1 63356U 25061F   26171.45085375  .00002631  00000+0  14489-3 0  9991
2 63356  97.5610 147.4131 0016553 232.7520 127.2203 15.14805109 68134
LEMUR-2-KREMPEL-BRO1    
1 63357U 25061G   26171.35867939  .00003022  00000+0  16674-3 0  9998
2 63357  97.5612 147.2367 0017168 234.5459 125.4171 15.14609962 68111
LEMUR-2-LANGER2SPACE    
1 63358U 25061H   26171.18758004  .00002716  00000+0  15167-3 0  9997
2 63358  97.5616 146.8793 0015022 244.7926 115.1749 15.14306191 68073
LEMUR-2-BALTO           
1 63395U 25052BH  26171.45518853  .00005055  00000+0  40971-3 0  9994
2 63395  97.6900  65.0249 0006875  49.4903 310.6918 15.00117989 69251
LEMUR-2-KRISH           
1 64561U 25135AK  26171.28442340  .00003654  00000+0  32897-3 0  9991
2 64561  97.7753 286.1395 0001618  96.8022 263.3383 14.96233814 54388
LEMUR-2-HUBBLE-4        
1 64565U 25135AP  26171.28592367  .00000980  00000+0  99230-4 0  9994
2 64565  97.7702 285.1541 0000888 282.2491  77.8629 14.93205398 54336
LEMUR-2-HUBBLE-5        
1 64840U 25135BT  26171.30501706  .00000825  00000+0  82445-4 0  9998
2 64840  97.7721 285.8121 0004814 342.4019  17.7033 14.94141837 54376
LEMUR-2-KARENDARRELL    
1 64841U 25135BU  26171.31990221  .00006327  00000+0  51100-3 0  9990
2 64841  97.7680 287.5224 0009932 189.9900 170.1127 15.00147337 54482
LEMUR-2-LUCILLE-ROSE    
1 65403U 25135BV  26171.22681999  .00005244  00000+0  42394-3 0  9996
2 65403  97.7764 287.4529 0011474 271.3735  88.6173 15.00184115 49093
LEMUR-2-AFFIE-WAUWIE    
1 66295U 25248C   26171.19549890  .00016094  00000+0  60139-3 0  9992
2 66295  45.3922  98.6890 0007304 104.5584 255.6116 15.27237753 35057
LEMUR-2-DEANANDMAEVE    
1 66678U 25276N   26171.47510795  .00005478  00000+0  25913-3 0  9996
2 66678  97.4207 244.8963 0005367   3.4964 356.6307 15.19766400 30919
LEMUR-2-STAS-GORBUK     
1 66686U 25276W   26170.76594931  .00004501  00000+0  21576-3 0  9997
2 66686  97.4242 244.2537 0004851   6.8934 353.2367 15.19403010 30801
LEMUR-2-TEODOR          
1 66768U 25276DG  26171.47054166  .00004780  00000+0  21813-3 0  9991
2 66768  97.4147 245.1870 0002237 113.6059 246.5412 15.21079863 30945
LEMUR-2-LAILA           
1 66776U 25276DQ  26171.44397937  .00004618  00000+0  20952-3 0  9996
2 66776  97.4169 245.2837 0002413 131.3338 228.8106 15.21301311 30944
LEMUR-2-CELIJO-SB-PK    
1 66781U 25276DW  26170.70492547  .00005277  00000+0  42853-3 0  9999
2 66781  97.5242 241.4003 0008593 126.6428 233.5587 15.00003232 23001
LEMUR-2-FINNIAN         
1 66782U 25276DX  26170.74792521  .00005594  00000+0  44925-3 0  9993
2 66782  97.5291 241.6582 0008909  81.8955 278.3279 15.00405471 20382
