OBJECT_NAME,OBJECT_ID,EPOCH,MEAN_MOTION,ECCENTRICITY,INCLINATION,RA_OF_ASC_NODE,ARG_OF_PERICENTER,MEAN_ANOMALY,EPHEMERIS_TYPE,CLASSIFICATION_TYPE,NORAD_CAT_ID,ELEMENT_SET_NO,REV_AT_EPOCH,BSTAR,MEAN_MOTION_DOT,MEAN_MOTION_DDOT
LEMUR-2-ROUNDTRIPPER,2025-009DG,2026-06-20T05:18:23.708736,15.03833420,.000563,97.7251,253.8964,122.3264,237.8507,0,U,62711,999,7808,.51191E-3,.6985E-4,0
LEMUR-2-MYNAMEISJEFF,2025-009DH,2026-06-20T05:16:05.321856,15.03837013,.0003883,97.7297,254.2779,143.6078,216.5412,0,U,62712,999,7808,.47856E-3,.6525E-4,0
LEMUR-2-LEIA-PHILIP,2025-052AN,2026-06-20T09:51:56.079072,14.97323874,.0002912,97.6833,63.3081,199.6748,160.4362,0,U,63246,999,6915,.46E-4,.476E-5,0
LEMUR-2-LIA-MARTIN,2025-052AQ,2026-06-20T09:57:42.130080,14.97821397,.0003106,97.6883,63.7915,153.1804,206.9579,0,U,63248,999,6916,.25786E-3,.2973E-4,0
LEMUR-2-DELOITTE-1,2025-052BB,2026-06-20T06:11:53.568096,14.97624737,.0003522,97.6924,63.9659,90.6885,269.4741,0,U,63259,999,6915,.29039E-3,.3338E-4,0
LEMUR-2-EMERSONROSE,2025-052BD,2026-06-20T10:20:09.106080,14.99097173,.0001751,97.6876,64.7001,71.6794,288.4620,0,U,63261,999,6922,.24627E-3,.2933E-4,0
LEMUR-2-MARACHE-FRAN,2025-052BE,2026-06-20T04:53:16.196352,15.00125665,.0005047,97.6933,64.7998,11.9319,348.2023,0,U,63262,999,6921,.32663E-3,.4017E-4,0
LEMUR-2-THEFALCONER,2025-052BG,2026-06-20T10:02:58.119936,14.97403594,.0002244,97.6850,63.7411,23.0037,337.1285,0,U,63264,999,6917,.2232E-3,.2537E-4,0
LEMUR-2-UNTITLED-SC,2025-061A,2026-06-20T09:27:58.396032,15.13495318,.0017002,97.5640,146.7326,252.3972,107.5403,0,U,63351,999,6807,.16469E-3,.289E-4,0
LEMUR-2-ESPERANZA,2025-061B,2026-06-20T08:54:45.971424,15.13585921,.0016576,97.5646,146.8040,251.6410,108.3018,0,U,63352,999,6807,.1378E-3,.2413E-4,0
LEMUR-2-KREMPEL-BRO2,2025-061C,2026-06-20T09:32:17.471616,15.14024657,.0017627,97.5692,147.3673,243.2822,116.6605,0,U,63353,999,6809,.16274E-3,.2899E-4,0
LEMUR-2-THERMORAPTOR,2025-061D,2026-06-20T10:41:23.472384,15.14104092,.0017315,97.5697,147.4912,241.9500,117.9981,0,U,63354,999,6810,.14556E-3,.2591E-4,0
LEMUR-2-NEUROSPICY,2025-061E,2026-06-20T08:25:05.300256,15.14219201,.0015137,97.5626,147.0210,245.9192,114.0457,0,U,63355,999,6809,.17686E-3,.3171E-4,0
LEMUR-2-TILLINFINITY,2025-061F,2026-06-20T10:49:13.764000,15.14805109,.0016553,97.5610,147.4131,232.7520,127.2203,0,U,63356,999,6813,.14489E-3,.2631E-4,0
LEMUR-2-KREMPEL-BRO1,2025-061G,2026-06-20T08:36:29.899296,15.14609962,.0017168,97.5612,147.2367,234.5459,125.4171,0,U,63357,999,6811,.16674E-3,.3022E-4,0
LEMUR-2-LANGER2SPACE,2025-061H,2026-06-20T04:30:06.915456,15.14306191,.00150226,97.5616,146.8793,244.7926,115.1749,0,U,63358,999,6807,.15166957E-3,.2716E-4,0
LEMUR-2-BALTO,2025-052BH,2026-06-20T10:55:28.288992,15.00117989,.0006875,97.6900,65.0249,49.4903,310.6918,0,U,63395,999,6925,.40971E-3,.5055E-4,0
LEMUR-2-KRISH,2025-135AK,2026-06-20T06:49:34.181760,14.96233814,.0001618,97.7753,286.1395,96.8022,263.3383,0,U,64561,999,5438,.32897E-3,.3654E-4,0
LEMUR-2-HUBBLE-4,2025-135AP,2026-06-20T06:51:43.805088,14.93205398,.0000888,97.7702,285.1541,282.2491,77.8629,0,U,64565,999,5433,.9923E-4,.98E-5,0
LEMUR-2-HUBBLE-5,2025-135BT,2026-06-20T07:19:13.473984,14.94141837,.0004814,97.7721,285.8121,342.4019,17.7033,0,U,64840,999,5437,.82445E-4,.825E-5,0
LEMUR-2-KARENDARRELL,2025-135BU,2026-06-20T07:40:39.550944,15.00147337,.0009932,97.7680,287.5224,189.9900,170.1127,0,U,64841,999,5448,.511E-3,.6327E-4,0
LEMUR-2-LUCILLE-ROSE,2025-135BV,2026-06-20T05:26:37.247136,15.00184115,.0011474,97.7764,287.4529,271.3735,88.6173,0,U,65403,999,4909,.42394E-3,.5244E-4,0
LEMUR-2-AFFIE-WAUWIE,2025-248C,2026-06-20T04:41:31.104960,15.27237753,.00073049,45.3922,98.6890,104.5584,255.6116,0,U,66295,999,3505,.60138846E-3,.16094E-3,0
LEMUR-2-DEANANDMAEVE,2025-276N,2026-06-20T11:24:09.326880,15.19766400,.0005367,97.4207,244.8963,3.4964,356.6307,0,U,66678,999,3091,.25913E-3,.5478E-4,0
LEMUR-2-STAS-GORBUK,2025-276W,2026-06-19T18:22:58.020384,15.19403010,.0004851,97.4242,244.2537,6.8934,353.2367,0,U,66686,999,3080,.21576279E-3,.4501E-4,0
LEMUR-2-TEODOR,2025-276DG,2026-06-20T11:17:34.799424,15.21079863,.0002237,97.4147,245.1870,113.6059,246.5412,0,U,66768,999,3094,.21813E-3,.478E-4,0
LEMUR-2-LAILA,2025-276DQ,2026-06-20T10:39:19.817568,15.21301311,.0002413,97.4169,245.2837,131.3338,228.8106,0,U,66776,999,3094,.20952E-3,.4618E-4,0
LEMUR-2-CELIJO-SB-PK,2025-276DW,2026-06-19T16:55:05.560608,15.00003232,.00085934,97.5242,241.4003,126.6428,233.5587,0,U,66781,999,2300,.42853036E-3,.5277E-4,0
LEMUR-2-FINNIAN,2025-276DX,2026-06-19T17:57:00.738144,15.00405471,.00089091,97.5291,241.6582,81.8955,278.3279,0,U,66782,999,2038,.44925011E-3,.5594E-4,0
